[{"OBJECT_NAME":"STARLINK-33799","OBJECT_ID":"2025-069Q","EPOCH":"2026-03-09T12:17:10.496256","MEAN_MOTION":15.30197189,"ECCENTRICITY":0.00011176,"INCLINATION":53.1584,"RA_OF_ASC_NODE":143.5783,"ARG_OF_PERICENTER":80.192,"MEAN_ANOMALY":279.9207,"EPHEMERIS_TYPE":0,"CLASSIFICATION_TYPE":"U","NORAD_CAT_ID":63447,"ELEMENT_SET_NO":999,"REV_AT_EPOCH":5326,"BSTAR":0.00065332248,"MEAN_MOTION_DOT":0.00019038,"MEAN_MOTION_DDOT":0},{"OBJECT_NAME":"CZ-4B DEB","OBJECT_ID":"2010-051E","EPOCH":"2026-03-08T22:01:50.125728","MEAN_MOTION":15.23766972,"ECCENTRICITY":0.00561086,"INCLINATION":97.769,"RA_OF_ASC_NODE":240.5013,"ARG_OF_PERICENTER":301.1291,"MEAN_ANOMALY":58.4449,"EPHEMERIS_TYPE":0,"CLASSIFICATION_TYPE":"U","NORAD_CAT_ID":38184,"ELEMENT_SET_NO":999,"REV_AT_EPOCH":82066,"BSTAR":0.0024566319,"MEAN_MOTION_DOT":0.00062123,"MEAN_MOTION_DDOT":0}]
